STARLINK-2022           
1 47643U 21012Z   24118.56871019  .00033008  00000+0  22200-2 0  9994
2 47643  53.0528 229.2864 0001596  86.9396 273.1775 15.06475314177085
